CCSDS_OMM_VERS = 2.0
CREATION_DATE  = 
ORIGINATOR     = 

OBJECT_NAME    = SL-16 R/B
OBJECT_ID      = 1998-043G
CENTER_NAME    = EARTH
REF_FRAME      = TEME
TIME_SYSTEM    = UTC
MEAN_ELEMENT_THEORY = SGP/SGP4

EPOCH          = 2026-02-16T21:25:59.039616
MEAN_MOTION    = 14.26044753
ECCENTRICITY   = .00109495
INCLINATION    = 98.8219
RA_OF_ASC_NODE = 1.1136
ARG_OF_PERICENTER = 76.0806
MEAN_ANOMALY   = 284.1591

EPHEMERIS_TYPE = 0
CLASSIFICATION_TYPE = U
NORAD_CAT_ID   = 25400
ELEMENT_SET_NO = 999
REV_AT_EPOCH   = 43602
BSTAR          = .47305022E-4
MEAN_MOTION_DOT = .68E-6
MEAN_MOTION_DDOT = 0

CCSDS_OMM_VERS = 2.0
CREATION_DATE  = 
ORIGINATOR     = 

OBJECT_NAME    = SL-16 R/B
OBJECT_ID      = 1998-045B
CENTER_NAME    = EARTH
REF_FRAME      = TEME
TIME_SYSTEM    = UTC
MEAN_ELEMENT_THEORY = SGP/SGP4

EPOCH          = 2026-02-16T22:45:35.019072
MEAN_MOTION    = 14.16189216
ECCENTRICITY   = .00057344
INCLINATION    = 71.0090
RA_OF_ASC_NODE = 225.1911
ARG_OF_PERICENTER = 45.2799
MEAN_ANOMALY   = 314.8791

EPHEMERIS_TYPE = 0
CLASSIFICATION_TYPE = U
NORAD_CAT_ID   = 25407
ELEMENT_SET_NO = 999
REV_AT_EPOCH   = 42416
BSTAR          = .17310193E-3
MEAN_MOTION_DOT = .295E-5
MEAN_MOTION_DDOT = 0

CCSDS_OMM_VERS = 2.0
CREATION_DATE  = 
ORIGINATOR     = 

OBJECT_NAME    = ISS (ZARYA)
OBJECT_ID      = 1998-067A
CENTER_NAME    = EARTH
REF_FRAME      = TEME
TIME_SYSTEM    = UTC
MEAN_ELEMENT_THEORY = SGP/SGP4

EPOCH          = 2026-02-17T04:23:19.361472
MEAN_MOTION    = 15.48657976
ECCENTRICITY   = .00110184
INCLINATION    = 51.6319
RA_OF_ASC_NODE = 173.7204
ARG_OF_PERICENTER = 107.0393
MEAN_ANOMALY   = 253.1803

EPHEMERIS_TYPE = 0
CLASSIFICATION_TYPE = U
NORAD_CAT_ID   = 25544
ELEMENT_SET_NO = 999
REV_AT_EPOCH   = 55315
BSTAR          = .18517944E-3
MEAN_MOTION_DOT = .966E-4
MEAN_MOTION_DDOT = 0

CCSDS_OMM_VERS = 2.0
CREATION_DATE  = 
ORIGINATOR     = 

OBJECT_NAME    = CZ-4B R/B
OBJECT_ID      = 1999-025C
CENTER_NAME    = EARTH
REF_FRAME      = TEME
TIME_SYSTEM    = UTC
MEAN_ELEMENT_THEORY = SGP/SGP4

EPOCH          = 2026-02-17T03:01:27.467040
MEAN_MOTION    = 14.18261219
ECCENTRICITY   = .00378312
INCLINATION    = 98.6669
RA_OF_ASC_NODE = 92.8905
ARG_OF_PERICENTER = 45.4481
MEAN_ANOMALY   = 325.6059

EPHEMERIS_TYPE = 0
CLASSIFICATION_TYPE = U
NORAD_CAT_ID   = 25732
ELEMENT_SET_NO = 999
REV_AT_EPOCH   = 38525
BSTAR          = .50708921E-4
MEAN_MOTION_DOT = .62E-6
MEAN_MOTION_DDOT = 0

CCSDS_OMM_VERS = 2.0
CREATION_DATE  = 
ORIGINATOR     = 

OBJECT_NAME    = OKEAN-O
OBJECT_ID      = 1999-039A
CENTER_NAME    = EARTH
REF_FRAME      = TEME
TIME_SYSTEM    = UTC
MEAN_ELEMENT_THEORY = SGP/SGP4

EPOCH          = 2026-02-17T04:06:08.254368
MEAN_MOTION    = 14.80301618
ECCENTRICITY   = .00018002
INCLINATION    = 97.9488
RA_OF_ASC_NODE = 108.2665
ARG_OF_PERICENTER = 79.8265
MEAN_ANOMALY   = 280.3150

EPHEMERIS_TYPE = 0
CLASSIFICATION_TYPE = U
NORAD_CAT_ID   = 25860
ELEMENT_SET_NO = 999
REV_AT_EPOCH   = 43135
BSTAR          = .11335639E-3
MEAN_MOTION_DOT = .811E-5
MEAN_MOTION_DDOT = 0

CCSDS_OMM_VERS = 2.0
CREATION_DATE  = 
ORIGINATOR     = 

OBJECT_NAME    = SL-16 R/B
OBJECT_ID      = 1999-039B
CENTER_NAME    = EARTH
REF_FRAME      = TEME
TIME_SYSTEM    = UTC
MEAN_ELEMENT_THEORY = SGP/SGP4

EPOCH          = 2026-02-17T04:05:02.738976
MEAN_MOTION    = 14.81702258
ECCENTRICITY   = .00139968
INCLINATION    = 98.0011
RA_OF_ASC_NODE = 107.2926
ARG_OF_PERICENTER = 328.7827
MEAN_ANOMALY   = 31.2553

EPHEMERIS_TYPE = 0
CLASSIFICATION_TYPE = U
NORAD_CAT_ID   = 25861
ELEMENT_SET_NO = 999
REV_AT_EPOCH   = 43382
BSTAR          = .91401161E-4
MEAN_MOTION_DOT = .667E-5
MEAN_MOTION_DDOT = 0

CCSDS_OMM_VERS = 2.0
CREATION_DATE  = 
ORIGINATOR     = 

OBJECT_NAME    = DELTA 2 R/B
OBJECT_ID      = 1999-041E
CENTER_NAME    = EARTH
REF_FRAME      = TEME
TIME_SYSTEM    = UTC
MEAN_ELEMENT_THEORY = SGP/SGP4

EPOCH          = 2026-02-17T06:22:29.837568
MEAN_MOTION    = 14.11760821
ECCENTRICITY   = .05022345
INCLINATION    = 51.7659
RA_OF_ASC_NODE = 22.8438
ARG_OF_PERICENTER = 288.1083
MEAN_ANOMALY   = 66.5777

EPHEMERIS_TYPE = 0
CLASSIFICATION_TYPE = U
NORAD_CAT_ID   = 25876
ELEMENT_SET_NO = 999
REV_AT_EPOCH   = 36014
BSTAR          = .36186328E-3
MEAN_MOTION_DOT = .2017E-4
MEAN_MOTION_DDOT = 0

CCSDS_OMM_VERS = 2.0
CREATION_DATE  = 
ORIGINATOR     = 

OBJECT_NAME    = HELIOS 1B
OBJECT_ID      = 1999-064A
CENTER_NAME    = EARTH
REF_FRAME      = TEME
TIME_SYSTEM    = UTC
MEAN_ELEMENT_THEORY = SGP/SGP4

EPOCH          = 2026-02-17T06:23:46.522752
MEAN_MOTION    = 14.87610965
ECCENTRICITY   = .00023256
INCLINATION    = 98.1720
RA_OF_ASC_NODE = 309.9076
ARG_OF_PERICENTER = 101.9197
MEAN_ANOMALY   = 258.2279

EPHEMERIS_TYPE = 0
CLASSIFICATION_TYPE = U
NORAD_CAT_ID   = 25977
ELEMENT_SET_NO = 999
REV_AT_EPOCH   = 68222
BSTAR          = .21761717E-3
MEAN_MOTION_DOT = .192E-4
MEAN_MOTION_DDOT = 0

CCSDS_OMM_VERS = 2.0
CREATION_DATE  = 
ORIGINATOR     = 

OBJECT_NAME    = TERRA
OBJECT_ID      = 1999-068A
CENTER_NAME    = EARTH
REF_FRAME      = TEME
TIME_SYSTEM    = UTC
MEAN_ELEMENT_THEORY = SGP/SGP4

EPOCH          = 2026-02-17T05:36:34.017120
MEAN_MOTION    = 14.60991999
ECCENTRICITY   = .000125
INCLINATION    = 97.9638
RA_OF_ASC_NODE = 102.4454
ARG_OF_PERICENTER = 215.7216
MEAN_ANOMALY   = 185.0201

EPHEMERIS_TYPE = 0
CLASSIFICATION_TYPE = U
NORAD_CAT_ID   = 25994
ELEMENT_SET_NO = 999
REV_AT_EPOCH   = 39209
BSTAR          = .10671877E-3
MEAN_MOTION_DOT = .479E-5
MEAN_MOTION_DDOT = 0

CCSDS_OMM_VERS = 2.0
CREATION_DATE  = 
ORIGINATOR     = 

OBJECT_NAME    = SL-16 R/B
OBJECT_ID      = 2000-006B
CENTER_NAME    = EARTH
REF_FRAME      = TEME
TIME_SYSTEM    = UTC
MEAN_ELEMENT_THEORY = SGP/SGP4

EPOCH          = 2026-02-17T05:46:56.060832
MEAN_MOTION    = 14.15818516
ECCENTRICITY   = .00180033
INCLINATION    = 71.0023
RA_OF_ASC_NODE = 140.8341
ARG_OF_PERICENTER = 218.8906
MEAN_ANOMALY   = 141.0923

EPHEMERIS_TYPE = 0
CLASSIFICATION_TYPE = U
NORAD_CAT_ID   = 26070
ELEMENT_SET_NO = 999
REV_AT_EPOCH   = 34566
BSTAR          = -.47747556E-4
MEAN_MOTION_DOT = -.142E-5
MEAN_MOTION_DDOT = 0

CCSDS_OMM_VERS = 2.0
CREATION_DATE  = 
ORIGINATOR     = 

OBJECT_NAME    = TITAN 4B R/B
OBJECT_ID      = 2000-047B
CENTER_NAME    = EARTH
REF_FRAME      = TEME
TIME_SYSTEM    = UTC
MEAN_ELEMENT_THEORY = SGP/SGP4

EPOCH          = 2026-02-17T06:54:15.675552
MEAN_MOTION    = 15.09379823
ECCENTRICITY   = .00372142
INCLINATION    = 67.9885
RA_OF_ASC_NODE = 97.8735
ARG_OF_PERICENTER = 60.2474
MEAN_ANOMALY   = 300.2369

EPHEMERIS_TYPE = 0
CLASSIFICATION_TYPE = U
NORAD_CAT_ID   = 26474
ELEMENT_SET_NO = 999
REV_AT_EPOCH   = 38983
BSTAR          = .21516032E-3
MEAN_MOTION_DOT = .3365E-4
MEAN_MOTION_DDOT = 0

CCSDS_OMM_VERS = 2.0
CREATION_DATE  = 
ORIGINATOR     = 

OBJECT_NAME    = ENVISAT
OBJECT_ID      = 2002-009A
CENTER_NAME    = EARTH
REF_FRAME      = TEME
TIME_SYSTEM    = UTC
MEAN_ELEMENT_THEORY = SGP/SGP4

EPOCH          = 2026-02-17T07:40:48.755136
MEAN_MOTION    = 14.39029048
ECCENTRICITY   = .00013715
INCLINATION    = 98.3695
RA_OF_ASC_NODE = 2.4069
ARG_OF_PERICENTER = 87.1061
MEAN_ANOMALY   = 31.8009

EPHEMERIS_TYPE = 0
CLASSIFICATION_TYPE = U
NORAD_CAT_ID   = 27386
ELEMENT_SET_NO = 999
REV_AT_EPOCH   = 25624
BSTAR          = .53605829E-4
MEAN_MOTION_DOT = .123E-5
MEAN_MOTION_DDOT = 0

