SL-16 R/B               
1 25400U 98043G   26047.89304444  .00000068  00000+0  47305-4 0  9996
2 25400  98.8219   1.1136 0010949  76.0806 284.1591 14.26044753436023
SL-16 R/B               
1 25407U 98045B   26047.94832198  .00000295  00000+0  17310-3 0  9997
2 25407  71.0090 225.1911 0005734  45.2799 314.8791 14.16189216424162
ISS (ZARYA)             
1 25544U 98067A   26048.18286298  .00009660  00000+0  18518-3 0  9990
2 25544  51.6319 173.7204 0011018 107.0393 253.1803 15.48657976553154
CZ-4B R/B               
1 25732U 99025C   26048.12601235  .00000062  00000+0  50709-4 0  9996
2 25732  98.6669  92.8905 0037831  45.4481 325.6059 14.18261219385254
OKEAN-O                 
1 25860U 99039A   26048.17092887  .00000811  00000+0  11336-3 0  9999
2 25860  97.9488 108.2665 0001800  79.8265 280.3150 14.80301618431359
SL-16 R/B               
1 25861U 99039B   26048.17017059  .00000667  00000+0  91401-4 0  9999
2 25861  98.0011 107.2926 0013996 328.7827  31.2553 14.81702258433822
DELTA 2 R/B             
1 25876U 99041E   26048.26562312  .00002017  00000+0  36186-3 0  9994
2 25876  51.7659  22.8438 0502234 288.1083  66.5777 14.11760821360149
HELIOS 1B               
1 25977U 99064A   26048.26651068  .00001920  00000+0  21762-3 0  9994
2 25977  98.1720 309.9076 0002325 101.9197 258.2279 14.87610965682225
TERRA                   
1 25994U 99068A   26048.23372705  .00000479  00000+0  10672-3 0  9998
2 25994  97.9638 102.4454 0001250 215.7216 185.0201 14.60991999392092
SL-16 R/B               
1 26070U 00006B   26048.24092663 -.00000142  00000+0 -47748-4 0  9995
2 26070  71.0023 140.8341 0018003 218.8906 141.0923 14.15818516345661
TITAN 4B R/B            
1 26474U 00047B   26048.28768143  .00003365  00000+0  21516-3 0  9997
2 26474  67.9885  97.8735 0037214  60.2474 300.2369 15.09379823389838
ENVISAT                 
1 27386U 02009A   26048.32000874  .00000123  00000+0  53606-4 0  9990
2 27386  98.3695   2.4069 0001371  87.1061  31.8009 14.39029048256244
